[{"OBJECT_NAME":"STARLINK-34744","OBJECT_ID":"2025-158W","EPOCH":"2026-03-09T15:18:26.897184","MEAN_MOTION":15.05645725,"ECCENTRICITY":0.0002312,"INCLINATION":97.603,"RA_OF_ASC_NODE":293.9583,"ARG_OF_PERICENTER":79.495,"MEAN_ANOMALY":280.6538,"EPHEMERIS_TYPE":0,"CLASSIFICATION_TYPE":"U","NORAD_CAT_ID":64952,"ELEMENT_SET_NO":999,"REV_AT_EPOCH":3534,"BSTAR":0.00023756,"MEAN_MOTION_DOT":3.368e-5,"MEAN_MOTION_DDOT":0},{"OBJECT_NAME":"FENGYUN 1C DEB","OBJECT_ID":"1999-025CKC","EPOCH":"2026-03-08T17:03:17.573184","MEAN_MOTION":15.04248193,"ECCENTRICITY":0.00988517,"INCLINATION":98.9933,"RA_OF_ASC_NODE":156.7578,"ARG_OF_PERICENTER":358.897,"MEAN_ANOMALY":1.2019,"EPHEMERIS_TYPE":0,"CLASSIFICATION_TYPE":"U","NORAD_CAT_ID":31877,"ELEMENT_SET_NO":999,"REV_AT_EPOCH":332,"BSTAR":0.0010830251,"MEAN_MOTION_DOT":0.0001673,"MEAN_MOTION_DDOT":0}]
